{"type": "FeatureCollection", "features": [ {"type": "Feature", "properties": {"norad_id": 34529, "name": "IRIDIUM 33 DEB", "group": "iridium-33-debris", "lat": 78.65004627090406, "lon": 51.25806844095213, "alt_km": 748.4517767139414, "timestamp": "2025-12-18T21:31:51.389413+00:00", "meta": {"OBJECT_NAME": "IRIDIUM 33 DEB", "OBJECT_ID": "1997-051HW", "EPOCH": "2025-12-18T02:49:37.866432", "MEAN_MOTION": 14.40619942, "ECCENTRICITY": 0.00054631, "INCLINATION": 86.3635, "RA_OF_ASC_NODE": 33.1191, "ARG_OF_PERICENTER": 160.6247, "MEAN_ANOMALY": 199.5161, "EPHEMERIS_TYPE": 0, "CLASSIFICATION_TYPE": "U", "NORAD_CAT_ID": 34529, "ELEMENT_SET_NO": 999, "REV_AT_EPOCH": 88219, "BSTAR": 9.3845134e-05, "MEAN_MOTION_DOT": 3.19e-06, "MEAN_MOTION_DDOT": 0}, "tle": {"line1": "1 34529U 97051HW  25352.11779938  .00000319  00000+0  93845-4 0  9992", "line2": "2 34529  86.3635  33.1191 0005463 160.6247 199.5161 14.40619942882198"}}, "geometry": {"type": "Point", "coordinates": [51.25806844095213, 78.65004627090406]}}, {"type": "Feature", "properties": {"norad_id": 34538, "name": "IRIDIUM 33 DEB", "group": "iridium-33-debris", "lat": -38.12794951847684, "lon": -0.07057460532337928, "alt_km": 733.8929109263981, "timestamp": "2025-12-18T21:31:51.389423+00:00", "meta": {"OBJECT_NAME": "IRIDIUM 33 DEB", "OBJECT_ID": "1997-051JF", "EPOCH": "2025-12-18T05:39:21.453408", "MEAN_MOTION": 14.42680198, "ECCENTRICITY": 0.00323077, "INCLINATION": 86.2766, "RA_OF_ASC_NODE": 3.1488, "ARG_OF_PERICENTER": 309.1252, "MEAN_ANOMALY": 179.4598, "EPHEMERIS_TYPE": 0, "CLASSIFICATION_TYPE": "U", "NORAD_CAT_ID": 34538, "ELEMENT_SET_NO": 999, "REV_AT_EPOCH": 87835, "BSTAR": 0.00076545295, "MEAN_MOTION_DOT": 2.58e-05, "MEAN_MOTION_DDOT": 0}, "tle": {"line1": "1 34538U 97051JF  25352.23566497  .00002580  00000+0  76545-3 0  9998", "line2": "2 34538  86.2766   3.1488 0032307 309.1252 179.4598 14.42680198878358"}}, "geometry": {"type": "Point", "coordinates": [-0.07057460532337928, -38.12794951847684]}}, {"type": "Feature", "properties": {"norad_id": 34540, "name": "IRIDIUM 33 DEB", "group": "iridium-33-debris", "lat": 23.815278475192905, "lon": -53.57704707877319, "alt_km": 648.2218399631538, "timestamp": "2025-12-18T21:31:51.389434+00:00", "meta": {"OBJECT_NAME": "IRIDIUM 33 DEB", "OBJECT_ID": "1997-051JH", "EPOCH": "2025-12-17T21:15:02.173248", "MEAN_MOTION": 14.75425645, "ECCENTRICITY": 0.00172318, "INCLINATION": 86.31, "RA_OF_ASC_NODE": 305.2533, "ARG_OF_PERICENTER": 141.4592, "MEAN_ANOMALY": 272.6134, "EPHEMERIS_TYPE": 0, "CLASSIFICATION_TYPE": "U", "NORAD_CAT_ID": 34540, "ELEMENT_SET_NO": 999, "REV_AT_EPOCH": 89097, "BSTAR": 0.0012315699, "MEAN_MOTION_DOT": 8.411e-05, "MEAN_MOTION_DDOT": 0}, "tle": {"line1": "1 34540U 97051JH  25351.88544182  .00008411  00000+0  12316-2 0  9992", "line2": "2 34540  86.3100 305.2533 0017231 141.4592 272.6134 14.75425645890978"}}, "geometry": {"type": "Point", "coordinates": [-53.57704707877319, 23.815278475192905]}}, {"type": "Feature", "properties": {"norad_id": 34648, "name": "IRIDIUM 33 DEB", "group": "iridium-33-debris", "lat": -16.992023685544158, "lon": 100.56502287214892, "alt_km": 839.6952772383611, "timestamp": "2025-12-18T21:31:51.389444+00:00", "meta": {"OBJECT_NAME": "IRIDIUM 33 DEB", "OBJECT_ID": "1997-051JZ", "EPOCH": "2025-12-18T05:16:16.304160", "MEAN_MOTION": 14.11658863, "ECCENTRICITY": 0.01810182, "INCLINATION": 86.3907, "RA_OF_ASC_NODE": 279.7334, "ARG_OF_PERICENTER": 281.7704, "MEAN_ANOMALY": 76.3223, "EPHEMERIS_TYPE": 0, "CLASSIFICATION_TYPE": "U", "NORAD_CAT_ID": 34648, "ELEMENT_SET_NO": 999, "REV_AT_EPOCH": 85038, "BSTAR": 0.005925561, "MEAN_MOTION_DOT": 0.00012599, "MEAN_MOTION_DDOT": 0}, "tle": {"line1": "1 34648U 97051JZ  25352.21963315  .00012599  00000+0  59256-2 0  9998", "line2": "2 34648  86.3907 279.7334 0181018 281.7704  76.3223 14.11658863850383"}}, "geometry": {"type": "Point", "coordinates": [100.56502287214892, -16.992023685544158]}}, {"type": "Feature", "properties": {"norad_id": 34651, "name": "IRIDIUM 33 DEB", "group": "iridium-33-debris", "lat": -33.41750684194162, "lon": -39.58361022390272, "alt_km": 721.9288218548745, "timestamp": "2025-12-18T21:31:51.389454+00:00", "meta": {"OBJECT_NAME": "IRIDIUM 33 DEB", "OBJECT_ID": "1997-051KC", "EPOCH": "2025-12-18T03:41:38.471136", "MEAN_MOTION": 14.25903582, "ECCENTRICITY": 0.01422298, "INCLINATION": 86.2828, "RA_OF_ASC_NODE": 138.2742, "ARG_OF_PERICENTER": 186.7985, "MEAN_ANOMALY": 173.1282, "EPHEMERIS_TYPE": 0, "CLASSIFICATION_TYPE": "U", "NORAD_CAT_ID": 34651, "ELEMENT_SET_NO": 999, "REV_AT_EPOCH": 85973, "BSTAR": 0.0025867185, "MEAN_MOTION_DOT": 6.871e-05, "MEAN_MOTION_DDOT": 0}, "tle": {"line1": "1 34651U 97051KC  25352.15391749  .00006871  00000+0  25867-2 0  9998", "line2": "2 34651  86.2828 138.2742 0142229 186.7985 173.1282 14.25903582859731"}}, "geometry": {"type": "Point", "coordinates": [-39.58361022390272, -33.41750684194162]}}, {"type": "Feature", "properties": {"norad_id": 34652, "name": "IRIDIUM 33 DEB", "group": "iridium-33-debris", "lat": -14.461354457928472, "lon": -23.68835703286339, "alt_km": 684.8179264504934, "timestamp": "2025-12-18T21:31:51.389464+00:00", "meta": {"OBJECT_NAME": "IRIDIUM 33 DEB", "OBJECT_ID": "1997-051KD", "EPOCH": "2025-12-18T05:13:09.591168", "MEAN_MOTION": 14.62108733, "ECCENTRICITY": 0.0025579, "INCLINATION": 86.3312, "RA_OF_ASC_NODE": 337.5623, "ARG_OF_PERICENTER": 278.2148, "MEAN_ANOMALY": 92.0483, "EPHEMERIS_TYPE": 0, "CLASSIFICATION_TYPE": "U", "NORAD_CAT_ID": 34652, "ELEMENT_SET_NO": 999, "REV_AT_EPOCH": 88564, "BSTAR": 0.00078476432, "MEAN_MOTION_DOT": 3.982e-05, "MEAN_MOTION_DDOT": 0}, "tle": {"line1": "1 34652U 97051KD  25352.21747212  .00003982  00000+0  78476-3 0  9991", "line2": "2 34652  86.3312 337.5623 0025579 278.2148  92.0483 14.62108733885646"}}, "geometry": {"type": "Point", "coordinates": [-23.68835703286339, -14.461354457928472]}}, {"type": "Feature", "properties": {"norad_id": 34690, "name": "IRIDIUM 33 DEB", "group": "iridium-33-debris", "lat": 53.5393115373535, "lon": 39.2334722965205, "alt_km": 698.8839565182361, "timestamp": "2025-12-18T21:31:51.389476+00:00", "meta": {"OBJECT_NAME": "IRIDIUM 33 DEB", "OBJECT_ID": "1997-051KM", "EPOCH": "2025-12-18T03:22:47.271360", "MEAN_MOTION": 14.55115223, "ECCENTRICITY": 0.0010189, "INCLINATION": 86.3779, "RA_OF_ASC_NODE": 34.6443, "ARG_OF_PERICENTER": 11.8253, "MEAN_ANOMALY": 42.6017, "EPHEMERIS_TYPE": 0, "CLASSIFICATION_TYPE": "U", "NORAD_CAT_ID": 34690, "ELEMENT_SET_NO": 999, "REV_AT_EPOCH": 88173, "BSTAR": 0.00033300884, "MEAN_MOTION_DOT": 1.459e-05, "MEAN_MOTION_DDOT": 0}, "tle": {"line1": "1 34690U 97051KM  25352.14082490  .00001459  00000+0  33301-3 0  9990", "line2": "2 34690  86.3779  34.6443 0010189  11.8253  42.6017 14.55115223881733"}}, "geometry": {"type": "Point", "coordinates": [39.2334722965205, 53.5393115373535]}}, {"type": "Feature", "properties": {"norad_id": 34693, "name": "IRIDIUM 33 DEB", "group": "iridium-33-debris", "lat": -69.21328918909029, "lon": -69.04046208005975, "alt_km": 487.7140012708578, "timestamp": "2025-12-18T21:31:51.389487+00:00", "meta": {"OBJECT_NAME": "IRIDIUM 33 DEB", "OBJECT_ID": "1997-051KQ", "EPOCH": "2025-12-17T03:29:01.779936", "MEAN_MOTION": 15.28993867, "ECCENTRICITY": 0.0012502, "INCLINATION": 86.3047, "RA_OF_ASC_NODE": 301.6344, "ARG_OF_PERICENTER": 45.3487, "MEAN_ANOMALY": 327.2881, "EPHEMERIS_TYPE": 0, "CLASSIFICATION_TYPE": "U", "NORAD_CAT_ID": 34693, "ELEMENT_SET_NO": 999, "REV_AT_EPOCH": 88982, "BSTAR": 0.0037800508, "MEAN_MOTION_DOT": 0.00107985, "MEAN_MOTION_DDOT": 0}, "tle": {"line1": "1 34693U 97051KQ  25351.14515949  .00107985  00000+0  37801-2 0  9991", "line2": "2 34693  86.3047 301.6344 0012502  45.3487 327.2881 15.28993867889821"}}, "geometry": {"type": "Point", "coordinates": [-69.04046208005975, -69.21328918909029]}}, {"type": "Feature", "properties": {"norad_id": 34696, "name": "IRIDIUM 33 DEB", "group": "iridium-33-debris", "lat": 55.921357767983274, "lon": 30.318254942846437, "alt_km": 670.6290660392124, "timestamp": "2025-12-18T21:31:51.389497+00:00", "meta": {"OBJECT_NAME": "IRIDIUM 33 DEB", "OBJECT_ID": "1997-051KT", "EPOCH": "2025-12-18T03:32:40.448832", "MEAN_MOTION": 14.65358935, "ECCENTRICITY": 0.00741468, "INCLINATION": 86.1848, "RA_OF_ASC_NODE": 25.0061, "ARG_OF_PERICENTER": 149.1986, "MEAN_ANOMALY": 276.8772, "EPHEMERIS_TYPE": 0, "CLASSIFICATION_TYPE": "U", "NORAD_CAT_ID": 34696, "ELEMENT_SET_NO": 999, "REV_AT_EPOCH": 86752, "BSTAR": 0.0032641319, "MEAN_MOTION_DOT": 0.00018409, "MEAN_MOTION_DDOT": 0}, "tle": {"line1": "1 34696U 97051KT  25352.14769038  .00018409  00000+0  32641-2 0  9994", "line2": "2 34696  86.1848  25.0061 0074146 149.1986 276.8772 14.65358935867525"}}, "geometry": {"type": "Point", "coordinates": [30.318254942846437, 55.921357767983274]}}, {"type": "Feature", "properties": {"norad_id": 34765, "name": "IRIDIUM 33 DEB", "group": "iridium-33-debris", "lat": 61.417426969499346, "lon": -156.62949783088982, "alt_km": 747.5374633665679, "timestamp": "2025-12-18T21:31:51.389522+00:00", "meta": {"OBJECT_NAME": "IRIDIUM 33 DEB", "OBJECT_ID": "1997-051LJ", "EPOCH": "2025-12-17T14:00:27.393696", "MEAN_MOTION": 14.4047717, "ECCENTRICITY": 0.00159633, "INCLINATION": 86.3388, "RA_OF_ASC_NODE": 30.6831, "ARG_OF_PERICENTER": 194.8895, "MEAN_ANOMALY": 316.624, "EPHEMERIS_TYPE": 0, "CLASSIFICATION_TYPE": "U", "NORAD_CAT_ID": 34765, "ELEMENT_SET_NO": 999, "REV_AT_EPOCH": 87683, "BSTAR": 0.0003220723, "MEAN_MOTION_DOT": 1.045e-05, "MEAN_MOTION_DDOT": 0}, "tle": {"line1": "1 34765U 97051LJ  25351.58365039  .00001045  00000+0  32207-3 0  9998", "line2": "2 34765  86.3388  30.6831 0015963 194.8895 316.6240 14.40477170876831"}}, "geometry": {"type": "Point", "coordinates": [-156.62949783088982, 61.417426969499346]}}]}